NORAD_CAT_ID,OBJECT_NAME,OBJECT_TYPE,EPOCH,MEAN_MOTION,ECCENTRICITY,INCLINATION,RA_OF_ASC_NODE,ARG_OF_PERICENTER,MEAN_ANOMALY,BSTAR,MEAN_MOTION_DOT,MEAN_MOTION_DDOT,TLE_LINE0,TLE_LINE1,TLE_LINE2,SEMIMAJOR_AXIS,PERIOD,APOGEE,PERIGEE,DECAYED
56770.0,STARLINK-6342,PAYLOAD,2023-07-08 04:00:00,15.51171624,0.0003515,69.9981,307.1712,270.125,190.0762,0.0016431,0.00097364,0.0,0 STARLINK-6342,1 56770U 23078D   23189.16667824  .00097364  00000-0  16431-2 0  9994,2 56770  69.9981 307.1712 0003515 270.1250 190.0762 15.51171624  6241,6791.441,92.833,415.693,410.919,0.0
56770.0,STARLINK-6342,PAYLOAD,2023-07-08 12:00:00,15.51364586,0.0003448,69.9983,306.2598,271.035,250.0288,-0.006668,-0.00375741,0.0,0 STARLINK-6342,1 56770U 23078D   23189.50001157 -.00375741  00000-0 -66680-2 0  9994,2 56770  69.9983 306.2598 0003448 271.0350 250.0288 15.51364586  6297,6790.878,92.822,415.084,410.401,0.0
56770.0,STARLINK-6342,PAYLOAD,2023-07-08 20:00:01,15.51166363,0.000346,69.9976,305.3482,272.8303,309.1639,-0.017571,-0.00945868,0.0,0 STARLINK-6342,1 56770U 23078D   23189.83334491 -.00945868  00000-0 -17571-1 0  9997,2 56770  69.9976 305.3482 0003460 272.8303 309.1639 15.51166363  6358,6791.456,92.833,415.671,410.972,0.0
56770.0,STARLINK-6342,PAYLOAD,2023-07-10 04:00:00,15.48507595,0.000325,69.9975,301.7099,266.7727,192.2373,-0.017355,-0.0084625,0.0,0 STARLINK-6342,1 56770U 23078D   23191.16667824 -.00846250  00000-0 -17355-1 0  9990,2 56770  69.9975 301.7099 0003250 266.7727 192.2373 15.48507595  6550,6799.228,92.993,423.303,418.883,0.0
56770.0,STARLINK-6342,PAYLOAD,2023-07-10 12:00:00,15.47872088,0.0003235,69.998,300.8022,269.3172,246.9921,-0.018954,-0.00910966,0.0,0 STARLINK-6342,1 56770U 23078D   23191.50001157 -.00910966  00000-0 -18954-1 0  9991,2 56770  69.9980 300.8022 0003235 269.3172 246.9921 15.47872088  6601,6801.089,93.031,425.154,420.754,0.0
56770.0,STARLINK-6342,PAYLOAD,2023-07-11 12:00:00,15.45914468,0.000336,69.9976,298.0856,269.721,53.7774,-0.020191,-0.00907061,0.0,0 STARLINK-6342,1 56770U 23078D   23192.50001157 -.00907061  00000-0 -20191-1 0  9990,2 56770  69.9976 298.0856 0003360 269.7210  53.7774 15.45914468  6769,6806.829,93.149,430.982,426.407,0.0
56770.0,STARLINK-6342,PAYLOAD,2023-07-12 12:00:00,15.43960272,0.0003299,69.9977,295.3765,272.2657,211.3803,-0.021684,-0.00910789,0.0,0 STARLINK-6342,1 56770U 23078D   23193.50001157 -.00910789  00000-0 -21684-1 0  9990,2 56770  69.9977 295.3765 0003299 272.2657 211.3803 15.43960272  6918,6812.572,93.267,436.684,432.189,0.0
56770.0,STARLINK-6342,PAYLOAD,2023-07-13 18:00:00,15.4152635,0.0003244,69.9976,292.0018,274.0934,309.8285,-0.023629,-0.00914026,0.0,0 STARLINK-6342,1 56770U 23078D   23194.75001157 -.00914026  00000-0 -23629-1 0  9997,2 56770  69.9976 292.0018 0003244 274.0934 309.8285 15.41526350  7113,6819.741,93.414,443.818,439.394,0.0
56770.0,STARLINK-6342,PAYLOAD,2023-07-14 12:00:00,15.4004487,0.0003438,69.9982,289.9837,273.7292,149.0937,-0.024622,-0.00907276,0.0,0 STARLINK-6342,1 56770U 23078D   23195.50001157 -.00907276  00000-0 -24622-1 0  9994,2 56770  69.9982 289.9837 0003438 273.7292 149.0937 15.40044870  7223,6824.114,93.504,448.325,443.633,0.0
56770.0,STARLINK-6342,PAYLOAD,2023-07-15 12:00:00,15.38087613,0.0003455,69.998,287.299,271.3727,290.4779,-0.026292,-0.00908349,0.0,0 STARLINK-6342,1 56770U 23078D   23196.50001157 -.00908349  00000-0 -26292-1 0  9992,2 56770  69.9980 287.2990 0003455 271.3727 290.4779 15.38087613  7389,6829.902,93.623,454.127,449.407,0.0
56770.0,STARLINK-6342,PAYLOAD,2023-07-16 12:00:00,15.3613346,0.0003626,69.9979,284.6223,271.276,62.5592,-0.028087,-0.00910584,0.0,0 STARLINK-6342,1 56770U 23078D   23197.50001157 -.00910584  00000-0 -28087-1 0  9991,2 56770  69.9979 284.6223 0003626 271.2760  62.5592 15.36133460  7531,6835.693,93.742,460.036,455.079,0.0
56770.0,STARLINK-6342,PAYLOAD,2023-07-17 12:00:00,15.34168697,0.0003518,69.9977,281.9537,274.7402,184.0427,-0.029402,-0.00896251,0.0,0 STARLINK-6342,1 56770U 23078D   23198.50001157 -.00896251  00000-0 -29402-1 0  9998,2 56770  69.9977 281.9537 0003518 274.7402 184.0427 15.34168697  7689,6841.528,93.862,465.8,460.986,0.0
56770.0,STARLINK-6342,PAYLOAD,2023-07-18 04:00:00,15.32885229,0.0003301,69.9973,280.1792,269.47,268.6842,-0.03113,-0.00909838,0.0,0 STARLINK-6342,1 56770U 23078D   23199.16667824 -.00909838  00000-0 -31130-1 0  9997,2 56770  69.9973 280.1792 0003301 269.4700 268.6842 15.32885229  7798,6845.346,93.94,469.471,464.952,0.0
56770.0,STARLINK-6342,PAYLOAD,2023-07-18 20:00:01,15.31603062,0.0003275,69.9969,278.4081,271.6919,342.7174,-0.034603,-0.00978663,0.0,0 STARLINK-6342,1 56770U 23078D   23199.83334491 -.00978663  00000-0 -34603-1 0  9992,2 56770  69.9969 278.4081 0003275 271.6919 342.7174 15.31603062  7896,6849.166,94.019,473.274,468.788,0.0
56770.0,STARLINK-6342,PAYLOAD,2023-07-19 04:00:00,15.30930922,0.0003399,69.9971,277.5241,266.518,24.847,-0.033214,-0.00912752,0.0,0 STARLINK-6342,1 56770U 23078D   23200.16667824 -.00912752  00000-0 -33214-1 0  9994,2 56770  69.9971 277.5241 0003399 266.5180  24.8470 15.30930922  7947,6851.171,94.06,475.364,470.707,0.0
56770.0,STARLINK-6342,PAYLOAD,2023-07-19 20:00:01,15.29641747,0.0003407,69.9965,275.7583,273.4127,89.5163,-0.036498,-0.0097172,0.0,0 STARLINK-6342,1 56770U 23078D   23200.83334491 -.00971720  00000-0 -36498-1 0  9996,2 56770  69.9965 275.7583 0003407 273.4127  89.5163 15.29641747  8048,6855.019,94.14,479.22,474.549,0.0
56770.0,STARLINK-6342,PAYLOAD,2023-07-20 04:00:00,15.28978726,0.0003351,69.9967,274.8768,268.0383,129.4969,-0.035615,-0.00920531,0.0,0 STARLINK-6342,1 56770U 23078D   23201.16667824 -.00920531  00000-0 -35615-1 0  9996,2 56770  69.9967 274.8768 0003351 268.0383 129.4969 15.28978726  8099,6857.001,94.181,481.164,476.568,0.0
56770.0,STARLINK-6342,PAYLOAD,2023-07-20 20:00:01,15.27683351,0.0003308,69.9962,273.116,273.7616,190.6467,-0.038711,-0.00970487,0.0,0 STARLINK-6342,1 56770U 23078D   23201.83334491 -.00970487  00000-0 -38711-1 0  9996,2 56770  69.9962 273.1160 0003308 273.7616 190.6467 15.27683351  8196,6860.877,94.26,485.011,480.472,0.0
56770.0,STARLINK-6342,PAYLOAD,2023-07-21 04:00:00,15.27032028,0.0003193,69.9965,272.237,268.3436,228.3184,-0.038524,-0.0094849,0.0,0 STARLINK-6342,1 56770U 23078D   23202.16667824 -.00948490  00000-0 -38524-1 0  9993,2 56770  69.9965 272.2370 0003193 268.3436 228.3184 15.27032028  8244,6862.827,94.301,486.884,482.501,0.0
56770.0,STARLINK-6342,PAYLOAD,2023-07-24 14:00:01,15.20308809,0.0003104,69.9963,263.276,274.9859,237.2661,-0.044065,-0.008919,0.0,0 STARLINK-6342,1 56770U 23078D   23205.58334491 -.00891900  00000-0 -44065-1 0  9993,2 56770  69.9963 263.2760 0003104 274.9859 237.2661 15.20308809  2349,6883.045,94.718,507.047,502.774,0.0
56770.0,STARLINK-6342,PAYLOAD,2023-07-25 14:00:01,15.18355202,0.0003077,69.9964,260.6705,272.7655,307.5836,-0.046953,-0.00897442,0.0,0 STARLINK-6342,1 56770U 23078D   23206.58335648 -.00897442  00000-0 -46953-1 0  9994,2 56770  69.9964 260.6705 0003077 272.7655 307.5836 15.18355202  2508,6888.948,94.839,512.933,508.693,0.0
56770.0,STARLINK-6342,PAYLOAD,2023-07-26 14:00:01,15.16402842,0.0003161,69.9965,258.073,272.7246,8.5541,-0.050107,-0.00904875,0.0,0 STARLINK-6342,1 56770U 23078D   23207.58334491 -.00904875  00000-0 -50107-1 0  9995,2 56770  69.9965 258.0730 0003161 272.7246   8.5541 15.16402842  2656,6894.86,94.962,518.904,514.545,0.0
56770.0,STARLINK-6342,PAYLOAD,2023-07-26 22:00:01,15.15716662,0.0003139,69.9964,257.2088,267.1125,33.0094,-0.048139,-0.00855981,0.0,0 STARLINK-6342,1 56770U 23078D   23207.91668981 -.00855981  00000-0 -48139-1 0  9991,2 56770  69.9964 257.2088 0003139 267.1125  33.0094 15.15716662  2700,6896.941,95.005,520.971,516.641,0.0
56770.0,STARLINK-6342,PAYLOAD,2023-07-27 04:00:00,15.15299704,0.0003115,69.9967,256.5615,265.0719,318.523,-0.05565,-0.00968608,0.0,0 STARLINK-6342,1 56770U 23078D   23208.16667824 -.00968608  00000-0 -55650-1 0  9991,2 56770  69.9967 256.5615 0003115 265.0719 318.5230 15.15299704  9164,6898.206,95.031,522.22,517.922,0.0
56770.0,STARLINK-6342,PAYLOAD,2023-07-27 14:00:01,15.14449479,0.0003269,69.9965,255.4833,273.1202,62.1118,-0.053344,-0.00910812,0.0,0 STARLINK-6342,1 56770U 23078D   23208.58334491 -.00910812  00000-0 -53344-1 0  9990,2 56770  69.9965 255.4833 0003269 273.1202  62.1118 15.14449479  2805,6900.787,95.084,524.908,520.397,0.0
56770.0,STARLINK-6342,PAYLOAD,2023-07-27 20:00:01,15.13951049,0.0003079,69.9964,254.8371,268.9139,348.714,-0.054286,-0.00913673,0.0,0 STARLINK-6342,1 56770U 23078D   23208.83334491 -.00913673  00000-0 -54286-1 0  9992,2 56770  69.9964 254.8371 0003079 268.9139 348.7140 15.13951049  9269,6902.302,95.115,526.292,522.042,0.0
56770.0,STARLINK-6342,PAYLOAD,2023-07-27 22:00:00,15.13757382,0.0003206,69.9964,254.6218,267.1782,84.4884,-0.050578,-0.00851138,0.0,0 STARLINK-6342,1 56770U 23078D   23208.91667824 -.00851138  00000-0 -50578-1 0  9997,2 56770  69.9964 254.6218 0003206 267.1782  84.4884 15.13757382  2866,6902.891,95.128,526.969,522.543,0.0
56770.0,STARLINK-6342,PAYLOAD,2023-07-28 14:00:01,15.12493514,0.0003285,69.9964,252.9015,273.7989,108.3462,-0.056468,-0.00912379,0.0,0 STARLINK-6342,1 56770U 23078D   23209.58334491 -.00912379  00000-0 -56468-1 0  9991,2 56770  69.9964 252.9015 0003285 273.7989 108.3462 15.12493514  2963,6906.736,95.207,530.869,526.332,0.0
56770.0,STARLINK-6342,PAYLOAD,2023-07-28 20:00:01,15.11990855,0.0003182,69.9962,252.2573,268.4095,34.3728,-0.056943,-0.00907564,0.0,0 STARLINK-6342,1 56770U 23078D   23209.83334491 -.00907564  00000-0 -56943-1 0  9997,2 56770  69.9962 252.2573 0003182 268.4095  34.3728 15.11990855  9417,6908.266,95.239,532.329,527.933,0.0
56770.0,STARLINK-6342,PAYLOAD,2023-07-29 20:00:01,15.10027868,0.0003211,69.996,249.6853,268.7937,72.1033,-0.059389,-0.00897122,0.0,0 STARLINK-6342,1 56770U 23078D   23210.83334491 -.00897122  00000-0 -59389-1 0  9994,2 56770  69.9960 249.6853 0003211 268.7937  72.1033 15.10027868  9566,6914.252,95.362,538.337,533.897,0.0
